USA 176 (DSP 22)        
1 28158U 04004A   24147.88436183 -.00000214  00000+0  00000+0 0  9997
2 28158  11.0341  31.1578 0001027  40.9802 218.4415  1.00283970 25398
ABS-4 (MOBISAT-1)       
1 28184U 04007A   24147.98382664  .00000051  00000+0  00000+0 0  9992
2 28184   4.1296  81.0702 0004877 348.6023 230.5395  1.00274504 74053
EUTELSAT 7A             
1 28187U 04008A   24147.58616361  .00000116  00000+0  00000+0 0  9998
2 28187   3.9123  80.8516 0002963 342.4671 253.1388  1.00270482 73814
AMC-11                  
1 28252U 04017A   24147.87794171 -.00000037  00000+0  00000+0 0  9992
2 28252   0.0189   0.0152 0001238  46.4888  43.3979  1.00271311 73347
INTELSAT 10-02          
1 28358U 04022A   24148.38521706  .00000000  00000+0  00000+0 0  9993
2 28358   0.0145  15.5906 0001337  58.7968 308.7366  1.00274003 73102
ANIK F2                 
1 28378U 04027A   24148.16432223 -.00000038  00000+0  00000+0 0  9993
2 28378   1.3420  88.7796 0002901 349.0649 115.4223  1.00271263 72821
AMC-15                  
1 28446U 04041A   24148.09399573 -.00000077  00000+0  00000+0 0  9990
2 28446   0.0201  10.3906 0002555  59.0572 104.4956  1.00272223 71818
NSS-10                  
1 28526U 05003A   24147.74953679 -.00000239  00000+0  00000+0 0  9992
2 28526   4.5623  79.4371 0003140 347.2563  50.4941  1.00271395 45622
XTAR-EUR                
1 28542U 05005A   24147.47782353  .00000164  00000+0  00000+0 0  9997
2 28542   2.3937  86.0732 0003088 340.8646  18.6199  1.00270962 70652
XM-3 (RHYTHM)           
1 28626U 05008A   24147.81158392 -.00000192  00000+0  00000+0 0  9993
2 28626   0.0156 271.2224 0003394 309.6615 231.0116  1.00268641 35096
INMARSAT 4-F1           
1 28628U 05009A   24147.86401809  .00000045  00000+0  00000+0 0  9991
2 28628   4.2560  40.8770 0002350  42.4097 290.8631  1.00273252 70139
DIRECTV 8               
1 28659U 05019A   24147.87637530  .00000014  00000+0  00000+0 0  9995
2 28659   0.0169 346.4668 0003227  86.0872   8.8235  1.00271181 69530
GALAXY 28 (G-28)        
1 28702U 05022A   24148.16876038 -.00000174  00000+0  00000+0 0  9997
2 28702   1.3574  88.1680 0001441 225.5529 263.2446  1.00270201 69298
THAICOM 4               
1 28786U 05028A   24147.91433903 -.00000350  00000+0  00000+0 0  9993
2 28786   0.0164 326.3023 0002291 115.0293 252.2992  1.00270284 44719
GALAXY 14 (G-14)        
1 28790U 05030A   24148.19295694  .00000166  00000+0  00000+0 0  9999
2 28790   3.0773  84.0688 0001719 330.2109 293.3264  1.00269827 68769
ANIK F1R                
1 28868U 05036A   24148.16510543 -.00000063  00000+0  00000+0 0  9998
2 28868   2.3782  85.8764 0003811 348.9396 122.5461  1.00271237 68625
SYRACUSE 3A             
1 28885U 05041B   24147.90930615  .00000143  00000+0  00000+0 0  9998
2 28885   2.7213  85.1452 0002627 326.0608 207.2959  1.00270299 68216
INMARSAT 4-F2           
1 28899U 05044A   24148.14334979 -.00000250  00000+0  00000+0 0  9994
2 28899   4.1679  42.3518 0002311  36.5088   1.4279  1.00271124 67975
SPACEWAY 2              
1 28903U 05046B   24147.58616361  .00000115  00000+0  00000+0 0  9996
2 28903   3.5618  80.5229 0000550 341.0665 255.1526  1.00271358 43806
METEOSAT-9 (MSG-2)      
1 28912U 05049B   24147.90921912  .00000136  00000+0  00000+0 0  9999
2 28912   7.6388  61.0460 0001714   0.4958 196.4841  1.00268081 67543
EUTELSAT 174A           
1 28924U 05052A   24148.53747150  .00000020  00000+0  00000+0 0  9998
2 28924   2.3084  85.7353 0006464 339.2133 188.1247  1.00270990 67450
ECHOSTAR 10             
1 28935U 06003A   24148.16449627 -.00000044  00000+0  00000+0 0  9991
2 28935   0.0127 359.3748 0001484  81.2058 113.6649  1.00270769 66980
SPAINSAT                
1 28945U 06007A   24147.40433938 -.00000201  00000+0  00000+0 0  9995
2 28945   0.0224 249.2253 0003126 200.0526 270.7703  1.00272317 66687
EUTELSAT HOTBIRD 13E    
1 28946U 06007B   24147.90265612  .00000099  00000+0  00000+0 0  9997
2 28946   0.1664 115.9961 0005353 323.4647 143.2890  1.00274898 66799
JCSAT-5A                
1 29045U 06010A   24147.92639017 -.00000316  00000+0  00000+0 0  9991
2 29045   0.0157 320.3424 0000366  38.0413 352.1493  1.00268311 66233
ASTRA 1KR               
1 29055U 06012A   24148.23382432  .00000131  00000+0  00000+0 0  9999
2 29055   0.0213 299.0581 0000963 172.1222 237.4347  1.00273321 66212
EWS-G1 (GOES 13)        
1 29155U 06018A   24148.46495150 -.00000227  00000+0  00000+0 0  9990
2 29155   2.5723  85.5143 0082667 254.9673  32.9927  0.99108092 65959
GALAXY 16 (G-16)        
1 29236U 06023A   24148.45302940 -.00000116  00000+0  00000+0 0  9996
2 29236   0.0476 119.7936 0002987 310.6333 239.1578  1.00268308 65747
EUTELSAT HOTBIRD 13B    
1 29270U 06032A   24147.54880187  .00000169  00000+0  00000+0 0  9994
2 29270   0.0449  33.6917 0004915  52.6228  28.9640  1.00274271 39771
JCSAT-3A                
1 29272U 06033A   24148.50356941 -.00000334  00000+0  00000+0 0  9995
2 29272   0.0175 319.4579 0002752 132.1952 103.1782  1.00270727 65238
SYRACUSE 3B             
1 29273U 06033B   24147.89908819 -.00000031  00000+0  00000+0 0  9998
2 29273   0.9677  89.7177 0004065 331.9297 141.7766  1.00271728 65171
KOREASAT 5 (MUGUNGWHA 5)
1 29349U 06034A   24148.48726605 -.00000348  00000+0  00000+0 0  9991
2 29349   0.0127 265.0289 0001382 199.1243  69.8594  1.00271364 65101
DIRECTV 9S              
1 29494U 06043A   24147.88003025 -.00000100  00000+0  00000+0 0  9995
2 29494   0.4752  89.5717 0003037 342.7820  28.1923  1.00271239 43854
OPTUS D1                
1 29495U 06043B   24148.44007571 -.00000173  00000+0  00000+0 0  9999
2 29495   1.0918  89.0070 0004125 335.6827 131.2161  1.00269351 64619
BADR-4                  
1 29526U 06051A   24147.90535382  .00000157  00000+0  00000+0 0  9990
2 29526   0.0718  63.1043 0003408 330.3866 203.6380  1.00269894 43731
WILDBLUE-1              
1 29643U 06054A   24148.02115935 -.00000037  00000+0  00000+0 0  9993
2 29643   0.8574  90.5234 0001928 337.4948  73.4894  1.00271211 64012
SKYNET 5A               
1 30794U 07007B   24147.89361693 -.00000260  00000+0  00000+0 0  9997
2 30794   3.3780  82.7421 0003634 347.9170 231.2059  1.00272006 63163
ANIK F3                 
1 31102U 07009A   24148.44911338  .00000010  00000+0  00000+0 0  9994
2 31102   0.0133  34.2884 0002457  28.3140 225.8542  1.00271283 62809
ASTRA 1L                
1 31306U 07016A   24148.17549340  .00000131  00000+0  00000+0 0  9992
2 31306   0.0491 328.5332 0002364  38.0963 320.9523  1.00272716 62513
GALAXY 17 (G-17)        
1 31307U 07016B   24147.88325009 -.00000193  00000+0  00000+0 0  9993
2 31307   1.0632  89.5960 0004075 357.8884  30.4262  1.00271202 62273
ZHONGXING-6B            
1 31800U 07031A   24147.91197083 -.00000349  00000+0  00000+0 0  9994
2 31800   0.4603  91.5668 0003071 325.1945 271.8234  1.00269774 61934
DIRECTV 10              
1 31862U 07032A   24148.16597566 -.00000092  00000+0  00000+0 0  9996
2 31862   0.0060  84.8409 0000293  85.8364  31.5013  1.00271458 61872
BSAT-3A                 
1 32019U 07036B   24147.90851046 -.00000338  00000+0  00000+0 0  9995
2 32019   0.0390 188.9933 0000967 340.9357 151.9560  1.00271713 61537
OPTUS D2                
1 32252U 07044A   24147.78878399 -.00000097  00000+0  00000+0 0  9991
2 32252   0.1266  93.7471 0003689 332.0903 263.0197  1.00270932 61030
INTELSAT 11 (IS-11)     
1 32253U 07044B   24147.89160427 -.00000256  00000+0  00000+0 0  9997
2 32253   1.6094  88.0172 0003527 348.4987  86.4011  1.00270496 60963
WGS F1 (USA 195)        
1 32258U 07046A   24143.20605007  .00000043  00000+0  00000+0 0  9996
2 32258   0.0183 337.0839 0005600 260.5070  82.8256  1.00166391 44767
SKYNET 5B               
1 32294U 07056B   24147.90509275  .00000153  00000+0  00000+0 0  9990
2 32294   3.3340  82.3357 0003328 339.4619 174.1239  1.00269059 60661
ASTRA 4A                
1 32299U 07057A   24147.90108971  .00000045  00000+0  00000+0 0  9994
2 32299   0.0185  17.0847 0002846  43.2582 153.8044  1.00271751 44122
HORIZONS-2              
1 32388U 07063B   24147.88542566 -.00000241  00000+0  00000+0 0  9998
2 32388   0.6567  89.8340 0002299 354.2781  45.7935  1.00270940 60286
THURAYA-3               
1 32404U 08001A   24148.47540160 -.00000293  00000+0  00000+0 0  9991
2 32404   4.8260  32.2777 0002782  39.5976  83.2875  1.00270766 60009
THOR 5                  
1 32487U 08006A   24147.82837928  .00000004  00000+0  00000+0 0  9995
2 32487   0.0186 266.6473 0002545 156.3537 119.3579  1.00272880 59783
AMC-14                  
1 32708U 08011A   24147.83212126  .00000074  00000+0  00000+0 0  9992
2 32708  23.0591  29.5565 0042389   3.5709 168.8000  1.00275203 60621
DIRECTV 11              
1 32729U 08013A   24148.38799565 -.00000115  00000+0  00000+0 0  9992
2 32729   0.0492 133.9825 0000914   8.2817 143.6627  1.00270225 59407
ICO G1                  
1 32763U 08016A   24148.16797718 -.00000162  00000+0  00000+0 0  9999
2 32763   4.8791  34.8494 0002151  19.6661 158.3074  1.00271015 58932
VINASAT-1               
1 32767U 08018A   24148.35580187 -.00000317  00000+0  00000+0 0  9998
2 32767   0.0175  15.8622 0001502  58.6743  70.9210  1.00272076 59058
STAR ONE C2             
1 32768U 08018B   24148.45981718 -.00000266  00000+0  00000+0 0  9998
2 32768   0.0312  14.1547 0002759  54.8726 277.0079  1.00272840 59023
AMOS-3                  
1 32794U 08022A   24147.89926226 -.00000023  00000+0  00000+0 0  9993
2 32794   0.0597 112.6411 0001402 276.7093 175.2378  1.00271234 74807
GALAXY 18 (G-18)        
1 32951U 08024A   24147.87559209  .00000038  00000+0  00000+0 0  9996
2 32951   0.0137  35.4063 0003403  42.1398 359.5823  1.00271217 38312
CHINASAT 9 (ZX 9)       
1 33051U 08028A   24148.13316815 -.00000236  00000+0  00000+0 0  9997
2 33051   0.0115 329.5380 0004806 112.5444 303.2359  1.00271168 58486
